ONEWEB-0534             
1 55797U 23029B   26188.75973731  .00000000  00000+0 -32054-4 0  9994
2 55797  87.9183 270.3687 0001975 101.0843 259.0513 13.20772968163867
ONEWEB-0556             
1 55798U 23029C   26188.76643271  .00002901  00000+0  70994-2 0  9993
2 55798  87.9183 270.3660 0001085  93.0056 267.1202 13.20795893163864
ONEWEB-0562             
1 55799U 23029D   26188.75301300  .00000019  00000+0  13873-4 0  9990
2 55799  87.9183 270.3500 0001590  75.8952 284.2357 13.20772301163862
ONEWEB-0563             
1 55800U 23029E   26188.74794983 -.00000010  00000+0 -56150-4 0  9993
2 55800  87.9182 270.3815 0002018 106.2287 253.9069 13.20773516163850
ONEWEB-0564             
1 55801U 23029F   26188.74123576  .00000037  00000+0  58991-4 0  9990
2 55801  87.9177 270.3572 0001880  90.6861 269.4488 13.20772327163862
ONEWEB-0638             
1 55802U 23029G   26188.79264661  .00000202  00000+0  51039-3 0  9996
2 55802  87.8965 285.6438 0001435  92.3995 267.7299 13.14504285162106
ONEWEB-0639             
1 55803U 23029H   26188.72988963  .00000026  00000+0  33552-4 0  9993
2 55803  87.9178 300.8837 0002298 125.0460 235.0889 13.19725850161612
ONEWEB-0640             
1 55804U 23029J   26188.72603375  .00000227  00000+0  57720-3 0  9990
2 55804  87.8963 285.6483 0001393 111.6474 248.4804 13.14502580162111
ONEWEB-0641             
1 55805U 23029K   26188.72515623  .00000070  00000+0  14137-3 0  9990
2 55805  87.9189 300.8754 0002036 105.0018 255.1340 13.19726029161626
ONEWEB-0642             
1 55806U 23029L   26188.79624698 -.00000007  00000+0 -50908-4 0  9990
2 55806  87.9187 300.8731 0002457 118.8177 241.3202 13.19725654161622
ONEWEB-0643             
1 55807U 23029M   26188.77202387 -.00000029  00000+0 -11296-3 0  9996
2 55807  87.8961 285.6266 0002537 111.5933 248.5467 13.14502506162092
ONEWEB-0644             
1 55808U 23029N   26188.71569064  .00000042  00000+0  71848-4 0  9992
2 55808  87.9184 300.8897 0002168 108.8181 251.3187 13.19725821161615
ONEWEB-0645             
1 55809U 23029P   26188.73780215  .00000068  00000+0  13763-3 0  9997
2 55809  87.9183 300.8821 0001817 113.6977 246.4346 13.19725411161616
ONEWEB-0646             
1 55810U 23029Q   26188.67935569 -.00000016  00000+0 -71948-4 0  9991
2 55810  87.9184 300.8939 0002146 107.2438 252.8929 13.19726315161595
ONEWEB-0648             
1 55811U 23029R   26188.74030779  .00000034  00000+0  56619-4 0  9995
2 55811  87.8973 285.6082 0002039 126.0000 234.1319 13.14503374162090
ONEWEB-0649             
1 55812U 23029S   26188.78043793 -.00000002  00000+0 -36213-4 0  9995
2 55812  87.9184 300.8714 0001965 109.9017 250.2327 13.19726379161648
ONEWEB-0650             
1 55813U 23029T   26188.77570029  .00000049  00000+0  90882-4 0  9993
2 55813  87.9182 300.8752 0002321 115.9965 244.1407 13.19726001161615
ONEWEB-0652             
1 55814U 23029U   26188.79739524  .00000168  00000+0  41914-3 0  9996
2 55814  87.8963 285.6034 0002113 102.3848 257.7519 13.14503295162072
ONEWEB-0653             
1 55815U 23029V   26188.70541238  .00000083  00000+0  18916-3 0  9993
2 55815  87.8974 285.6197 0001925  99.2439 260.8908 13.14501809162093
ONEWEB-0654             
1 55816U 23029W   26188.77677093  .00000018  00000+0  13328-4 0  9991
2 55816  87.8972 285.6024 0001922  88.6786 271.4564 13.14502307162129
ONEWEB-0656             
1 55817U 23029X   26188.73448067 -.00000024  00000+0 -89915-4 0  9999
2 55817  87.9194 270.3361 0002030  87.6543 272.4823 13.20769568163865
ONEWEB-0657             
1 55818U 23029Y   26188.77102507 -.00004969  00000+0 -12458-1 0  9997
2 55818  87.9182 300.8745 0003853  67.6021 292.5520 13.19685345161628
ONEWEB-0658             
1 55819U 23029Z   26188.76623626 -.00000003  00000+0 -39303-4 0  9993
2 55819  87.9192 300.8532 0002202 110.1389 249.9981 13.19725977161636
ONEWEB-0660             
1 55820U 23029AA  26188.75456836 -.00000181  00000+0 -52382-3 0  9999
2 55820  87.8978 285.6018 0001788 107.1664 252.9661 13.14501578162104
ONEWEB-0661             
1 55821U 23029AB  26188.71335271  .00000174  00000+0  43353-3 0  9993
2 55821  87.8963 285.6508 0001719 104.5148 255.6173 13.14502402162087
ONEWEB-0662             
1 55822U 23029AC  26188.74823654 -.00000160  00000+0 -46651-3 0  9995
2 55822  87.8962 285.6497 0001818 108.5990 251.5338 13.14501937162139
ONEWEB-0663             
1 55823U 23029AD  26188.76666416  .00000002  00000+0 -27027-4 0  9990
2 55823  87.9195 270.4006 0002006 111.1255 249.0093 13.20870980163866
ONEWEB-0664             
1 55824U 23029AE  26188.72103692  .00000051  00000+0  92593-4 0  9992
2 55824  87.9180 270.3888 0001573  97.8974 262.2338 13.20771772163851
ONEWEB-0665             
1 55825U 23029AF  26188.71017928  .00000169  00000+0  42129-3 0  9997
2 55825  87.8961 285.6324 0001879 109.4568 250.6765 13.14502216162100
ONEWEB-0666             
1 55826U 23029AG  26188.71428942  .00000044  00000+0  76510-4 0  9994
2 55826  87.9180 270.3802 0002667  89.2241 270.9198 13.20772498163863
