OBJECT_NAME,OBJECT_ID,EPOCH,MEAN_MOTION,ECCENTRICITY,INCLINATION,RA_OF_ASC_NODE,ARG_OF_PERICENTER,MEAN_ANOMALY,EPHEMERIS_TYPE,CLASSIFICATION_TYPE,NORAD_CAT_ID,ELEMENT_SET_NO,REV_AT_EPOCH,BSTAR,MEAN_MOTION_DOT,MEAN_MOTION_DDOT
ONEWEB-0534,2023-029B,2026-07-07T18:14:01.303584,13.20772968,.0001975,87.9183,270.3687,101.0843,259.0513,0,U,55797,999,16386,-.32054E-4,0,0
ONEWEB-0556,2023-029C,2026-07-07T18:23:39.786144,13.20795893,.0001085,87.9183,270.3660,93.0056,267.1202,0,U,55798,999,16386,.70994E-2,.2901E-4,0
ONEWEB-0562,2023-029D,2026-07-07T18:04:20.323200,13.20772301,.000159,87.9183,270.3500,75.8952,284.2357,0,U,55799,999,16386,.13873E-4,.19E-6,0
ONEWEB-0563,2023-029E,2026-07-07T17:57:02.865312,13.20773516,.0002018,87.9182,270.3815,106.2287,253.9069,0,U,55800,999,16385,-.5615E-4,-.1E-6,0
ONEWEB-0564,2023-029F,2026-07-07T17:47:22.769664,13.20772327,.000188,87.9177,270.3572,90.6861,269.4488,0,U,55801,999,16386,.58991E-4,.37E-6,0
ONEWEB-0638,2023-029G,2026-07-07T19:01:24.667104,13.14504285,.0001435,87.8965,285.6438,92.3995,267.7299,0,U,55802,999,16210,.51039E-3,.202E-5,0
ONEWEB-0639,2023-029H,2026-07-07T17:31:02.464032,13.19725850,.0002298,87.9178,300.8837,125.0460,235.0889,0,U,55803,999,16161,.33552E-4,.26E-6,0
ONEWEB-0640,2023-029J,2026-07-07T17:25:29.316000,13.14502580,.0001393,87.8963,285.6483,111.6474,248.4804,0,U,55804,999,16211,.5772E-3,.227E-5,0
ONEWEB-0641,2023-029K,2026-07-07T17:24:13.498272,13.19726029,.0002036,87.9189,300.8754,105.0018,255.1340,0,U,55805,999,16162,.14137E-3,.7E-6,0
ONEWEB-0642,2023-029L,2026-07-07T19:06:35.739072,13.19725654,.0002457,87.9187,300.8731,118.8177,241.3202,0,U,55806,999,16162,-.50908E-4,-.7E-7,0
ONEWEB-0643,2023-029M,2026-07-07T18:31:42.862368,13.14502506,.0002537,87.8961,285.6266,111.5933,248.5467,0,U,55807,999,16209,-.11296E-3,-.29E-6,0
ONEWEB-0644,2023-029N,2026-07-07T17:10:35.671296,13.19725821,.0002168,87.9184,300.8897,108.8181,251.3187,0,U,55808,999,16161,.71848E-4,.42E-6,0
ONEWEB-0645,2023-029P,2026-07-07T17:42:26.105760,13.19725411,.0001817,87.9183,300.8821,113.6977,246.4346,0,U,55809,999,16161,.13763E-3,.68E-6,0
ONEWEB-0646,2023-029Q,2026-07-07T16:18:16.331616,13.19726315,.0002146,87.9184,300.8939,107.2438,252.8929,0,U,55810,999,16159,-.71948E-4,-.16E-6,0
ONEWEB-0648,2023-029R,2026-07-07T17:46:02.593056,13.14503374,.0002039,87.8973,285.6082,126.0000,234.1319,0,U,55811,999,16209,.56619E-4,.34E-6,0
ONEWEB-0649,2023-029S,2026-07-07T18:43:49.837152,13.19726379,.0001965,87.9184,300.8714,109.9017,250.2327,0,U,55812,999,16164,-.36213E-4,-.2E-7,0
ONEWEB-0650,2023-029T,2026-07-07T18:37:00.505056,13.19726001,.0002321,87.9182,300.8752,115.9965,244.1407,0,U,55813,999,16161,.90882E-4,.49E-6,0
ONEWEB-0652,2023-029U,2026-07-07T19:08:14.948736,13.14503295,.0002113,87.8963,285.6034,102.3848,257.7519,0,U,55814,999,16207,.41914E-3,.168E-5,0
ONEWEB-0653,2023-029V,2026-07-07T16:55:47.629632,13.14501809,.0001925,87.8974,285.6197,99.2439,260.8908,0,U,55815,999,16209,.18916E-3,.83E-6,0
ONEWEB-0654,2023-029W,2026-07-07T18:38:33.008352,13.14502307,.0001922,87.8972,285.6024,88.6786,271.4564,0,U,55816,999,16212,.13328E-4,.18E-6,0
ONEWEB-0656,2023-029X,2026-07-07T17:37:39.129888,13.20769568,.000203,87.9194,270.3361,87.6543,272.4823,0,U,55817,999,16386,-.89915E-4,-.24E-6,0
ONEWEB-0657,2023-029Y,2026-07-07T18:30:16.566048,13.19685345,.0003853,87.9182,300.8745,67.6021,292.5520,0,U,55818,999,16162,-.12458E-1,-.4969E-4,0
ONEWEB-0658,2023-029Z,2026-07-07T18:23:22.812864,13.19725977,.0002202,87.9192,300.8532,110.1389,249.9981,0,U,55819,999,16163,-.39303E-4,-.3E-7,0
ONEWEB-0660,2023-029AA,2026-07-07T18:06:34.706304,13.14501578,.0001788,87.8978,285.6018,107.1664,252.9661,0,U,55820,999,16210,-.52382E-3,-.181E-5,0
ONEWEB-0661,2023-029AB,2026-07-07T17:07:13.674144,13.14502402,.0001719,87.8963,285.6508,104.5148,255.6173,0,U,55821,999,16208,.43353E-3,.174E-5,0
ONEWEB-0662,2023-029AC,2026-07-07T17:57:27.637056,13.14501937,.0001818,87.8962,285.6497,108.5990,251.5338,0,U,55822,999,16213,-.46651E-3,-.16E-5,0
ONEWEB-0663,2023-029AD,2026-07-07T18:23:59.783424,13.20870980,.0002006,87.9195,270.4006,111.1255,249.0093,0,U,55823,999,16386,-.27027E-4,.2E-7,0
ONEWEB-0664,2023-029AE,2026-07-07T17:18:17.589888,13.20771772,.0001573,87.9180,270.3888,97.8974,262.2338,0,U,55824,999,16385,.92593E-4,.51E-6,0
ONEWEB-0665,2023-029AF,2026-07-07T17:02:39.489792,13.14502216,.0001879,87.8961,285.6324,109.4568,250.6765,0,U,55825,999,16210,.42129E-3,.169E-5,0
ONEWEB-0666,2023-029AG,2026-07-07T17:08:34.605888,13.20772498,.0002667,87.9180,270.3802,89.2241,270.9198,0,U,55826,999,16386,.7651E-4,.44E-6,0
